BUFENG 1A               
1 44310U 19032A   26068.91906837  .00016103  00000+0  62414-3 0  9992
2 44310  44.9758 238.6688 0005472  55.4463 304.6935 15.26012088372013
STARLINK-32556          
1 61858U 24202P   26068.46196539 -.00000709  00000+0 -16253-4 0  9991
2 61858  43.0009 239.2027 0001320 255.5118 104.5587 15.27573886 75301
